{"type": "FeatureCollection", "features": [ {"type": "Feature", "properties": {"norad_id": 36540, "name": "COSMOS 2251 DEB", "group": "cosmos-2251-debris", "lat": -55.437451427771556, "lon": 18.973205091907403, "alt_km": 694.1056398504979, "timestamp": "2025-12-15T22:44:29.327762+00:00", "meta": {"OBJECT_NAME": "COSMOS 2251 DEB", "OBJECT_ID": "1993-036BDA", "EPOCH": "2025-12-13T18:37:01.077024", "MEAN_MOTION": 14.58495892, "ECCENTRICITY": 0.00149508, "INCLINATION": 74.0294, "RA_OF_ASC_NODE": 178.5434, "ARG_OF_PERICENTER": 248.6284, "MEAN_ANOMALY": 111.3286, "EPHEMERIS_TYPE": 0, "CLASSIFICATION_TYPE": "U", "NORAD_CAT_ID": 36540, "ELEMENT_SET_NO": 999, "REV_AT_EPOCH": 86025, "BSTAR": 0.0012951395, "MEAN_MOTION_DOT": 6e-05, "MEAN_MOTION_DDOT": 0}, "tle": {"line1": "1 36540U 93036BDA 25347.77570691  .00006000  00000+0  12951-2 0  9997", "line2": "2 36540  74.0294 178.5434 0014950 248.6284 111.3286 14.58495892860259"}}, "geometry": {"type": "Point", "coordinates": [18.973205091907403, -55.437451427771556]}}, {"type": "Feature", "properties": {"norad_id": 36550, "name": "COSMOS 2251 DEB", "group": "cosmos-2251-debris", "lat": 69.80462872934837, "lon": -122.00116346711485, "alt_km": 846.5280994252253, "timestamp": "2025-12-15T22:44:29.327773+00:00", "meta": {"OBJECT_NAME": "COSMOS 2251 DEB", "OBJECT_ID": "1993-036BDL", "EPOCH": "2025-12-12T06:53:46.055040", "MEAN_MOTION": 14.27197589, "ECCENTRICITY": 0.00783785, "INCLINATION": 74.0439, "RA_OF_ASC_NODE": 193.5589, "ARG_OF_PERICENTER": 244.3101, "MEAN_ANOMALY": 114.994, "EPHEMERIS_TYPE": 0, "CLASSIFICATION_TYPE": "U", "NORAD_CAT_ID": 36550, "ELEMENT_SET_NO": 999, "REV_AT_EPOCH": 84589, "BSTAR": 0.00090622054, "MEAN_MOTION_DOT": 2.261e-05, "MEAN_MOTION_DDOT": 0}, "tle": {"line1": "1 36550U 93036BDL 25346.28733860  .00002261  00000+0  90622-3 0  9999", "line2": "2 36550  74.0439 193.5589 0078378 244.3101 114.9940 14.27197589845891"}}, "geometry": {"type": "Point", "coordinates": [-122.00116346711485, 69.80462872934837]}}, {"type": "Feature", "properties": {"norad_id": 36551, "name": "COSMOS 2251 DEB", "group": "cosmos-2251-debris", "lat": -68.4970155723831, "lon": -39.10122008926047, "alt_km": 535.3551322236526, "timestamp": "2025-12-15T22:44:29.327783+00:00", "meta": {"OBJECT_NAME": "COSMOS 2251 DEB", "OBJECT_ID": "1993-036BDM", "EPOCH": "2025-12-12T08:47:24.108864", "MEAN_MOTION": 15.02551083, "ECCENTRICITY": 0.00509575, "INCLINATION": 73.8872, "RA_OF_ASC_NODE": 15.4722, "ARG_OF_PERICENTER": 324.547, "MEAN_ANOMALY": 35.2333, "EPHEMERIS_TYPE": 0, "CLASSIFICATION_TYPE": "U", "NORAD_CAT_ID": 36551, "ELEMENT_SET_NO": 999, "REV_AT_EPOCH": 66926, "BSTAR": 0.0018916563, "MEAN_MOTION_DOT": 0.00025929, "MEAN_MOTION_DDOT": 0}, "tle": {"line1": "1 36551U 93036BDM 25346.36625126  .00025929  00000+0  18917-2 0  9996", "line2": "2 36551  73.8872  15.4722 0050957 324.5470  35.2333 15.02551083669267"}}, "geometry": {"type": "Point", "coordinates": [-39.10122008926047, -68.4970155723831]}}, {"type": "Feature", "properties": {"norad_id": 36557, "name": "COSMOS 2251 DEB", "group": "cosmos-2251-debris", "lat": -12.469465254615445, "lon": 116.28460587545341, "alt_km": 634.5827545698085, "timestamp": "2025-12-15T22:44:29.327793+00:00", "meta": {"OBJECT_NAME": "COSMOS 2251 DEB", "OBJECT_ID": "1993-036BDT", "EPOCH": "2025-12-14T02:57:01.048320", "MEAN_MOTION": 14.78340641, "ECCENTRICITY": 0.0021568, "INCLINATION": 73.9788, "RA_OF_ASC_NODE": 123.5235, "ARG_OF_PERICENTER": 275.624, "MEAN_ANOMALY": 84.2475, "EPHEMERIS_TYPE": 0, "CLASSIFICATION_TYPE": "U", "NORAD_CAT_ID": 36557, "ELEMENT_SET_NO": 999, "REV_AT_EPOCH": 33917, "BSTAR": 0.0036752981, "MEAN_MOTION_DOT": 0.00026914, "MEAN_MOTION_DDOT": 0}, "tle": {"line1": "1 36557U 93036BDT 25348.12292880  .00026914  00000+0  36753-2 0  9998", "line2": "2 36557  73.9788 123.5235 0021568 275.6240  84.2475 14.78340641339170"}}, "geometry": {"type": "Point", "coordinates": [116.28460587545341, -12.469465254615445]}}, {"type": "Feature", "properties": {"norad_id": 36558, "name": "COSMOS 2251 DEB", "group": "cosmos-2251-debris", "lat": 19.792346212035604, "lon": 154.3815311287991, "alt_km": 715.2309782097427, "timestamp": "2025-12-15T22:44:29.327803+00:00", "meta": {"OBJECT_NAME": "COSMOS 2251 DEB", "OBJECT_ID": "1993-036BDU", "EPOCH": "2025-12-13T04:39:28.280448", "MEAN_MOTION": 14.5536689, "ECCENTRICITY": 0.00129076, "INCLINATION": 74.0417, "RA_OF_ASC_NODE": 153.6824, "ARG_OF_PERICENTER": 242.3004, "MEAN_ANOMALY": 117.6851, "EPHEMERIS_TYPE": 0, "CLASSIFICATION_TYPE": "U", "NORAD_CAT_ID": 36558, "ELEMENT_SET_NO": 999, "REV_AT_EPOCH": 85275, "BSTAR": 0.0014840285, "MEAN_MOTION_DOT": 6.426e-05, "MEAN_MOTION_DDOT": 0}, "tle": {"line1": "1 36558U 93036BDU 25347.19407732  .00006426  00000+0  14840-2 0  9998", "line2": "2 36558  74.0417 153.6824 0012907 242.3004 117.6851 14.55366890852758"}}, "geometry": {"type": "Point", "coordinates": [154.3815311287991, 19.792346212035604]}}, {"type": "Feature", "properties": {"norad_id": 36559, "name": "COSMOS 2251 DEB", "group": "cosmos-2251-debris", "lat": -55.54243087445996, "lon": -151.18294182969356, "alt_km": 1091.335492735283, "timestamp": "2025-12-15T22:44:29.327813+00:00", "meta": {"OBJECT_NAME": "COSMOS 2251 DEB", "OBJECT_ID": "1993-036BDV", "EPOCH": "2025-12-15T00:57:10.497312", "MEAN_MOTION": 13.95218337, "ECCENTRICITY": 0.02603312, "INCLINATION": 74.1328, "RA_OF_ASC_NODE": 5.8808, "ARG_OF_PERICENTER": 37.9939, "MEAN_ANOMALY": 323.924, "EPHEMERIS_TYPE": 0, "CLASSIFICATION_TYPE": "U", "NORAD_CAT_ID": 36559, "ELEMENT_SET_NO": 999, "REV_AT_EPOCH": 81126, "BSTAR": 0.0020604981, "MEAN_MOTION_DOT": 3.675e-05, "MEAN_MOTION_DDOT": 0}, "tle": {"line1": "1 36559U 93036BDV 25349.03970483  .00003675  00000+0  20605-2 0  9991", "line2": "2 36559  74.1328   5.8808 0260331  37.9939 323.9240 13.95218337811262"}}, "geometry": {"type": "Point", "coordinates": [-151.18294182969356, -55.54243087445996]}}, {"type": "Feature", "properties": {"norad_id": 36614, "name": "COSMOS 2251 DEB", "group": "cosmos-2251-debris", "lat": 73.48838111333725, "lon": -86.68285910177613, "alt_km": 693.8144386081067, "timestamp": "2025-12-15T22:44:29.327823+00:00", "meta": {"OBJECT_NAME": "COSMOS 2251 DEB", "OBJECT_ID": "1993-036BEC", "EPOCH": "2025-12-11T06:30:21.400992", "MEAN_MOTION": 14.60233542, "ECCENTRICITY": 0.00161993, "INCLINATION": 74.0218, "RA_OF_ASC_NODE": 177.391, "ARG_OF_PERICENTER": 247.2616, "MEAN_ANOMALY": 112.6838, "EPHEMERIS_TYPE": 0, "CLASSIFICATION_TYPE": "U", "NORAD_CAT_ID": 36614, "ELEMENT_SET_NO": 999, "REV_AT_EPOCH": 65591, "BSTAR": 0.0024222077, "MEAN_MOTION_DOT": 0.00011696, "MEAN_MOTION_DDOT": 0}, "tle": {"line1": "1 36614U 93036BEC 25345.27108103  .00011696  00000+0  24222-2 0  9998", "line2": "2 36614  74.0218 177.3910 0016199 247.2616 112.6838 14.60233542655911"}}, "geometry": {"type": "Point", "coordinates": [-86.68285910177613, 73.48838111333725]}}, {"type": "Feature", "properties": {"norad_id": 36622, "name": "COSMOS 2251 DEB", "group": "cosmos-2251-debris", "lat": -16.200883177728596, "lon": 134.4106958438988, "alt_km": 628.4457954974232, "timestamp": "2025-12-15T22:44:29.327833+00:00", "meta": {"OBJECT_NAME": "COSMOS 2251 DEB", "OBJECT_ID": "1993-036BEL", "EPOCH": "2025-12-13T04:07:59.528928", "MEAN_MOTION": 14.76203873, "ECCENTRICITY": 0.00688136, "INCLINATION": 74.0135, "RA_OF_ASC_NODE": 144.6283, "ARG_OF_PERICENTER": 279.9599, "MEAN_ANOMALY": 79.3813, "EPHEMERIS_TYPE": 0, "CLASSIFICATION_TYPE": "U", "NORAD_CAT_ID": 36622, "ELEMENT_SET_NO": 999, "REV_AT_EPOCH": 66756, "BSTAR": 0.0010024349, "MEAN_MOTION_DOT": 7.182e-05, "MEAN_MOTION_DDOT": 0}, "tle": {"line1": "1 36622U 93036BEL 25347.17221677  .00007182  00000+0  10024-2 0  9990", "line2": "2 36622  74.0135 144.6283 0068813 279.9599  79.3813 14.76203873667567"}}, "geometry": {"type": "Point", "coordinates": [134.4106958438988, -16.200883177728596]}}, {"type": "Feature", "properties": {"norad_id": 36632, "name": "COSMOS 2251 DEB", "group": "cosmos-2251-debris", "lat": 52.977525353286275, "lon": 84.0409703643781, "alt_km": 742.6994714394441, "timestamp": "2025-12-15T22:44:29.327843+00:00", "meta": {"OBJECT_NAME": "COSMOS 2251 DEB", "OBJECT_ID": "1993-036BEW", "EPOCH": "2025-12-13T13:36:30.735360", "MEAN_MOTION": 14.43181896, "ECCENTRICITY": 0.00321339, "INCLINATION": 74.0018, "RA_OF_ASC_NODE": 290.8293, "ARG_OF_PERICENTER": 38.3996, "MEAN_ANOMALY": 321.9438, "EPHEMERIS_TYPE": 0, "CLASSIFICATION_TYPE": "U", "NORAD_CAT_ID": 36632, "ELEMENT_SET_NO": 999, "REV_AT_EPOCH": 65227, "BSTAR": 0.0011350112, "MEAN_MOTION_DOT": 3.814e-05, "MEAN_MOTION_DDOT": 0}, "tle": {"line1": "1 36632U 93036BEW 25347.56702240  .00003814  00000+0  11350-2 0  9995", "line2": "2 36632  74.0018 290.8293 0032133  38.3996 321.9438 14.43181896652272"}}, "geometry": {"type": "Point", "coordinates": [84.0409703643781, 52.977525353286275]}}, {"type": "Feature", "properties": {"norad_id": 37084, "name": "COSMOS 2251 DEB", "group": "cosmos-2251-debris", "lat": 65.84036061152695, "lon": -165.39950590811543, "alt_km": 621.5964934501108, "timestamp": "2025-12-15T22:44:29.327854+00:00", "meta": {"OBJECT_NAME": "COSMOS 2251 DEB", "OBJECT_ID": "1993-036BFE", "EPOCH": "2025-12-15T04:49:21.003456", "MEAN_MOTION": 15.01025163, "ECCENTRICITY": 0.00974986, "INCLINATION": 74.0262, "RA_OF_ASC_NODE": 156.4351, "ARG_OF_PERICENTER": 236.3802, "MEAN_ANOMALY": 122.8054, "EPHEMERIS_TYPE": 0, "CLASSIFICATION_TYPE": "U", "NORAD_CAT_ID": 37084, "ELEMENT_SET_NO": 999, "REV_AT_EPOCH": 66304, "BSTAR": 0.00046158462, "MEAN_MOTION_DOT": 6.487e-05, "MEAN_MOTION_DDOT": 0}, "tle": {"line1": "1 37084U 93036BFE 25349.20093754  .00006487  00000+0  46158-3 0  9997", "line2": "2 37084  74.0262 156.4351 0097498 236.3802 122.8054 15.01025163663046"}}, "geometry": {"type": "Point", "coordinates": [-165.39950590811543, 65.84036061152695]}}]}